{
  "type": "FeatureCollection",
  "features": [
    {
      "type": "Feature",
      "properties": {
        "norad_id": 33805,
        "name": "COSMOS 2251 DEB",
        "group": "cosmos-2251-debris",
        "lat": -46.52779884008008,
        "lon": -89.88394067014082,
        "alt_km": 746.7604322700663,
        "timestamp": "2025-12-25T03:55:56.759840+00:00",
        "meta_object_name": "COSMOS 2251 DEB",
        "meta_object_id": "1993-036AW",
        "meta_epoch": "2025-12-24T19:55:27.210720",
        "meta_mean_motion": 14.57881357,
        "meta_eccentricity": 0.0059907,
        "meta_inclination": 74.0313,
        "meta_ra_of_asc_node": 288.3305,
        "meta_arg_of_pericenter": 113.7723,
        "meta_mean_anomaly": 246.974,
        "meta_ephemeris_type": 0,
        "meta_classification_type": "U",
        "meta_norad_cat_id": 33805,
        "meta_element_set_no": 999,
        "meta_rev_at_epoch": 89403,
        "meta_bstar": 0.00022894,
        "meta_mean_motion_dot": 1.045e-05,
        "meta_mean_motion_ddot": 0,
        "tle_line1": "1 33805U 93036AW  25358.83017605  .00001045  00000+0  22894-3 0  9990",
        "tle_line2": "2 33805  74.0313 288.3305 0059907 113.7723 246.9740 14.57881357894037"
      },
      "geometry": {
        "type": "Point",
        "coordinates": [
          -89.88394067014082,
          -46.52779884008008
        ]
      }
    },
    {
      "type": "Feature",
      "properties": {
        "norad_id": 33811,
        "name": "COSMOS 2251 DEB",
        "group": "cosmos-2251-debris",
        "lat": 32.46216322419914,
        "lon": 86.25180722234403,
        "alt_km": 566.0395809000538,
        "timestamp": "2025-12-25T03:55:56.759850+00:00",
        "meta_object_name": "COSMOS 2251 DEB",
        "meta_object_id": "1993-036BC",
        "meta_epoch": "2025-12-24T19:34:30.896832",
        "meta_mean_motion": 15.05616798,
        "meta_eccentricity": 0.0030963,
        "meta_inclination": 73.8381,
        "meta_ra_of_asc_node": 277.6051,
        "meta_arg_of_pericenter": 355.9466,
        "meta_mean_anomaly": 63.1922,
        "meta_ephemeris_type": 0,
        "meta_classification_type": "U",
        "meta_norad_cat_id": 33811,
        "meta_element_set_no": 999,
        "meta_rev_at_epoch": 90200,
        "meta_bstar": 0.0011228,
        "meta_mean_motion_dot": 0.00016371,
        "meta_mean_motion_ddot": 0,
        "tle_line1": "1 33811U 93036BC  25358.81563538  .00016371  00000+0  11228-2 0  9992",
        "tle_line2": "2 33811  73.8381 277.6051 0030963 355.9466  63.1922 15.05616798902007"
      },
      "geometry": {
        "type": "Point",
        "coordinates": [
          86.25180722234403,
          32.46216322419914
        ]
      }
    },
    {
      "type": "Feature",
      "properties": {
        "norad_id": 33815,
        "name": "COSMOS 2251 DEB",
        "group": "cosmos-2251-debris",
        "lat": 47.84407262683021,
        "lon": -48.11376538526282,
        "alt_km": 499.1107730890517,
        "timestamp": "2025-12-25T03:55:56.759861+00:00",
        "meta_object_name": "COSMOS 2251 DEB",
        "meta_object_id": "1993-036BG",
        "meta_epoch": "2025-12-24T20:02:16.889280",
        "meta_mean_motion": 15.21390355,
        "meta_eccentricity": 0.0003676,
        "meta_inclination": 73.9533,
        "meta_ra_of_asc_node": 151.1177,
        "meta_arg_of_pericenter": 328.7614,
        "meta_mean_anomaly": 159.811,
        "meta_ephemeris_type": 0,
        "meta_classification_type": "U",
        "meta_norad_cat_id": 33815,
        "meta_element_set_no": 999,
        "meta_rev_at_epoch": 88554,
        "meta_bstar": 0.0078842,
        "meta_mean_motion_dot": 0.0018137,
        "meta_mean_motion_ddot": 0,
        "tle_line1": "1 33815U 93036BG  25358.83491770  .00181370  00000+0  78842-2 0  9993",
        "tle_line2": "2 33815  73.9533 151.1177 0003676 328.7614 159.8110 15.21390355885547"
      },
      "geometry": {
        "type": "Point",
        "coordinates": [
          -48.11376538526282,
          47.84407262683021
        ]
      }
    },
    {
      "type": "Feature",
      "properties": {
        "norad_id": 33816,
        "name": "COSMOS 2251 DEB",
        "group": "cosmos-2251-debris",
        "lat": -49.27917315328308,
        "lon": 64.7280663623826,
        "alt_km": 1124.6514375065544,
        "timestamp": "2025-12-25T03:55:56.759872+00:00",
        "meta_object_name": "COSMOS 2251 DEB",
        "meta_object_id": "1993-036BH",
        "meta_epoch": "2025-12-24T16:01:39.856224",
        "meta_mean_motion": 13.8179612,
        "meta_eccentricity": 0.0264148,
        "meta_inclination": 73.8953,
        "meta_ra_of_asc_node": 85.1795,
        "meta_arg_of_pericenter": 95.7469,
        "meta_mean_anomaly": 267.3833,
        "meta_ephemeris_type": 0,
        "meta_classification_type": "U",
        "meta_norad_cat_id": 33816,
        "meta_element_set_no": 999,
        "meta_rev_at_epoch": 84838,
        "meta_bstar": 0.00034726,
        "meta_mean_motion_dot": 4.63e-06,
        "meta_mean_motion_ddot": 0,
        "tle_line1": "1 33816U 93036BH  25358.66782241  .00000463  00000+0  34726-3 0  9998",
        "tle_line2": "2 33816  73.8953  85.1795 0264148  95.7469 267.3833 13.81796120848389"
      },
      "geometry": {
        "type": "Point",
        "coordinates": [
          64.7280663623826,
          -49.27917315328308
        ]
      }
    },
    {
      "type": "Feature",
      "properties": {
        "norad_id": 33818,
        "name": "COSMOS 2251 DEB",
        "group": "cosmos-2251-debris",
        "lat": 70.18272369547272,
        "lon": -167.07298206811586,
        "alt_km": 506.57197393770366,
        "timestamp": "2025-12-25T03:55:56.759894+00:00",
        "meta_object_name": "COSMOS 2251 DEB",
        "meta_object_id": "1993-036BK",
        "meta_epoch": "2025-12-24T20:09:40.929120",
        "meta_mean_motion": 15.13486245,
        "meta_eccentricity": 0.0024142,
        "meta_inclination": 74.0795,
        "meta_ra_of_asc_node": 141.215,
        "meta_arg_of_pericenter": 124.0784,
        "meta_mean_anomaly": 350.7317,
        "meta_ephemeris_type": 0,
        "meta_classification_type": "U",
        "meta_norad_cat_id": 33818,
        "meta_element_set_no": 999,
        "meta_rev_at_epoch": 90045,
        "meta_bstar": 0.0027988,
        "meta_mean_motion_dot": 0.00050768,
        "meta_mean_motion_ddot": 0,
        "tle_line1": "1 33818U 93036BK  25358.84005705  .00050768  00000+0  27988-2 0  9997",
        "tle_line2": "2 33818  74.0795 141.2150 0024142 124.0784 350.7317 15.13486245900453"
      },
      "geometry": {
        "type": "Point",
        "coordinates": [
          -167.07298206811586,
          70.18272369547272
        ]
      }
    },
    {
      "type": "Feature",
      "properties": {
        "norad_id": 33819,
        "name": "COSMOS 2251 DEB",
        "group": "cosmos-2251-debris",
        "lat": -14.418357221072755,
        "lon": 11.55339893949255,
        "alt_km": 843.8178516953276,
        "timestamp": "2025-12-25T03:55:56.759917+00:00",
        "meta_object_name": "COSMOS 2251 DEB",
        "meta_object_id": "1993-036BL",
        "meta_epoch": "2025-12-24T20:48:36.913824",
        "meta_mean_motion": 14.32260246,
        "meta_eccentricity": 0.0089519,
        "meta_inclination": 74.1772,
        "meta_ra_of_asc_node": 187.909,
        "meta_arg_of_pericenter": 45.5827,
        "meta_mean_anomaly": 59.2835,
        "meta_ephemeris_type": 0,
        "meta_classification_type": "U",
        "meta_norad_cat_id": 33819,
        "meta_element_set_no": 999,
        "meta_rev_at_epoch": 87669,
        "meta_bstar": 0.00049023,
        "meta_mean_motion_dot": 1.358e-05,
        "meta_mean_motion_ddot": 0,
        "tle_line1": "1 33819U 93036BL  25358.86709391  .00001358  00000+0  49023-3 0  9998",
        "tle_line2": "2 33819  74.1772 187.9090 0089519  45.5827  59.2835 14.32260246876699"
      },
      "geometry": {
        "type": "Point",
        "coordinates": [
          11.55339893949255,
          -14.418357221072755
        ]
      }
    },
    {
      "type": "Feature",
      "properties": {
        "norad_id": 33821,
        "name": "COSMOS 2251 DEB",
        "group": "cosmos-2251-debris",
        "lat": 73.78146128009011,
        "lon": -163.54020162402261,
        "alt_km": 462.3150826461924,
        "timestamp": "2025-12-25T03:55:56.759939+00:00",
        "meta_object_name": "COSMOS 2251 DEB",
        "meta_object_id": "1993-036BN",
        "meta_epoch": "2025-12-24T18:06:39.485952",
        "meta_mean_motion": 15.26050093,
        "meta_eccentricity": 0.0049436,
        "meta_inclination": 74.0304,
        "meta_ra_of_asc_node": 117.4234,
        "meta_arg_of_pericenter": 146.7467,
        "meta_mean_anomaly": 213.6857,
        "meta_ephemeris_type": 0,
        "meta_classification_type": "U",
        "meta_norad_cat_id": 33821,
        "meta_element_set_no": 999,
        "meta_rev_at_epoch": 75184,
        "meta_bstar": 0.00133,
        "meta_mean_motion_dot": 0.00035617,
        "meta_mean_motion_ddot": 0,
        "tle_line1": "1 33821U 93036BN  25358.75462368  .00035617  00000+0  13300-2 0  9992",
        "tle_line2": "2 33821  74.0304 117.4234 0049436 146.7467 213.6857 15.26050093751848"
      },
      "geometry": {
        "type": "Point",
        "coordinates": [
          -163.54020162402261,
          73.78146128009011
        ]
      }
    }
  ]
}